ONEWEB-0029             
1 45445U 20020X   25054.18099396 -.00000236  00000+0 -70123-3 0  9995
2 45445  87.8859 116.5507 0001937 107.3283 252.8057 13.11415910239883
ONEWEB-0068             
1 45446U 20020Y   25054.16222352  .00000540  00000+0  14885-2 0  9992
2 45446  87.8861 116.5429 0001974 106.0874 254.0471 13.11415631239821
ONEWEB-0046             
1 45447U 20020Z   25054.15388013  .00000532  00000+0  14649-2 0  9998
2 45447  87.8860 116.5536 0001667 107.3897 252.7413 13.11416322239838
ONEWEB-0063             
1 45448U 20020AA  25054.18269348 -.00000294  00000+0 -86469-3 0  9998
2 45448  87.8858 116.5470 0001636  99.9658 260.1654 13.11415727239917
ONEWEB-0019             
1 45449U 20020AB  25054.15727209  .00000554  00000+0  15275-2 0  9994
2 45449  87.8864 116.5651 0001939  96.3853 263.7496 13.11416081239760
ONEWEB-0094             
1 45450U 20020AC  25054.12402822  .00000051  00000+0  97177-4 0  9999
2 45450  87.9035 101.2796 0001866  99.4243 260.7099 13.17646773243221
ONEWEB-0087             
1 45451U 20020AD  25054.19272349 -.00000525  00000+0 -15169-2 0  9993
2 45451  87.8852 116.5043 0001931 110.0812 250.0524 13.11416438239819
ONEWEB-0082             
1 45452U 20020AE  25054.18946926 -.00000390  00000+0 -11358-2 0  9998
2 45452  87.8858 116.5210 0002075 103.7918 256.3441 13.11416825239905
ONEWEB-0050             
1 45453U 20020AF  25054.16372538  .00008433  00000+0  79407-3 0  9993
2 45453  88.0054 324.4249 0000406 131.2379 228.8886 14.93748474269035
ONEWEB-0034             
1 45454U 20020AG  25053.90633601 -.00000046  00000+0 -16661-3 0  9993
2 45454  87.8862 116.5969 0001930 101.6827 258.4518 13.11418189239776
ONEWEB-0060             
1 45455U 20020AH  25054.17774815 -.00000111  00000+0 -34920-3 0  9998
2 45455  87.8863 116.5665 0001757 101.3092 258.8233 13.11413732239776
ONEWEB-0086             
1 45456U 20020AJ  25054.16066132  .00000470  00000+0  12915-2 0  9999
2 45456  87.8857 116.5458 0002052 112.4629 247.6717 13.11414833239820
ONEWEB-0088             
1 45457U 20020AK  25054.21491620  .00000037  00000+0  68112-4 0  9991
2 45457  87.8856 116.4892 0001840 106.5545 253.5785 13.11417912239772
ONEWEB-0102             
1 47258U 20100A   25054.13667638  .00000272  00000+0  72078-3 0  9992
2 47258  87.8810  86.0498 0001927  89.4041 270.7308 13.12442813201896
ONEWEB-0109             
1 47259U 20100B   25053.83983525  .00000444  00000+0  11990-2 0  9991
2 47259  87.8811  86.0768 0001969  92.2709 267.8645 13.12442984201684
ONEWEB-0110             
1 47260U 20100C   25054.17073316 -.00000046  00000+0 -16203-3 0  9992
2 47260  87.8805  86.0016 0002028  93.3963 266.7397 13.12441160201896
ONEWEB-0111             
1 47261U 20100D   25053.82036940 -.00000098  00000+0 -30687-3 0  9995
2 47261  87.8812  86.0803 0001927  92.2067 267.9283 13.12442569201687
ONEWEB-0114             
1 47262U 20100E   25054.15613784  .00000400  00000+0  10778-2 0  9993
2 47262  87.8806  86.0183 0001897  82.3466 277.7878 13.12442640201680
ONEWEB-0117             
1 47263U 20100F   25053.84307735  .00000469  00000+0  12694-2 0  9999
2 47263  87.8809  86.0668 0001899  95.2595 264.8750 13.12442806201657
ONEWEB-0118             
1 47264U 20100G   25054.10422938 -.00000296  00000+0 -85745-3 0  9991
2 47264  87.8810  86.0168 0001649  85.6972 274.4345 13.12441411201883
ONEWEB-0119             
1 47265U 20100H   25054.13180875  .00000147  00000+0  37209-3 0  9991
2 47265  87.8812  86.0503 0001981  93.9468 266.1887 13.12442782201869
ONEWEB-0120             
1 47266U 20100J   25054.15463969  .00000428  00000+0  11540-2 0  9993
2 47266  87.8812  86.0390 0001886  89.0304 271.1040 13.12443971201894
ONEWEB-0121             
1 47267U 20100K   25054.14316651  .00000439  00000+0  11854-2 0  9998
2 47267  87.8806  86.0188 0002022  96.2615 263.8744 13.12442499201805
ONEWEB-0122             
1 47268U 20100L   25054.13816218  .00000252  00000+0  66482-3 0  9993
2 47268  87.8806  86.0250 0002026  92.2822 267.8539 13.12445085201716
ONEWEB-0123             
1 47269U 20100M   25054.13342821  .00000186  00000+0  48272-3 0  9991
2 47269  87.8810  86.0485 0001836  92.6928 267.4411 13.12442449201852
ONEWEB-0124             
1 47270U 20100N   25054.12207362 -.00000243  00000+0 -71226-3 0  9993
2 47270  87.8810  86.0482 0001920 101.2682 258.8662 13.12442278201738
ONEWEB-0125             
1 47271U 20100P   25054.09935972 -.00000208  00000+0 -61318-3 0  9997
2 47271  87.8809  86.0146 0001607  99.7522 260.3788 13.12441750201797
ONEWEB-0126             
1 47272U 20100Q   25053.81956407 -.00000115  00000+0 -35543-3 0  9991
2 47272  87.8807  86.0668 0001905  89.8899 270.2448 13.12443591201825
ONEWEB-0127             
1 47273U 20100R   25053.78143859  .00000188  00000+0  48795-3 0  9998
2 47273  87.8810  86.1117 0001963  90.3351 269.8003 13.12440088201845
ONEWEB-0128             
1 47274U 20100S   25053.80412269 -.00000404  00000+0 -11595-2 0  9996
2 47274  87.8818  86.1256 0002125  95.2865 264.8506 13.12440196201868
ONEWEB-0129             
1 47275U 20100T   25054.08801323  .00000105  00000+0  25611-3 0  9992
2 47275  87.8812  86.0204 0002360  62.4826 297.6542 13.12441423201834
ONEWEB-0130             
1 47276U 20100U   25053.88685683 -.00000372  00000+0 -10689-2 0  9995
2 47276  87.8812  86.0641 0002026  93.8915 266.2446 13.12440167201778
ONEWEB-0131             
1 47277U 20100V   25053.80738680 -.00000329  00000+0 -94906-3 0  9991
2 47277  87.8813  86.1020 0001994  96.2892 263.8463 13.12441871201805
ONEWEB-0132             
1 47278U 20100W   25054.14154360  .00000399  00000+0  10748-2 0  9993
2 47278  87.8812  86.0368 0001892 101.7200 258.4141 13.12442557201749
ONEWEB-0133             
1 47279U 20100X   25053.77657626  .00000355  00000+0  95258-3 0  9997
2 47279  87.8807  86.0944 0002003  96.0476 264.0881 13.12441852201853
ONEWEB-0134             
1 47280U 20100Y   25054.12693912  .00000000  00000+0 -34608-4 0  9998
2 47280  87.8805  86.0092 0002175  91.1945 268.9433 13.12442758201878
ONEWEB-0135             
1 47281U 20100Z   25053.79279078 -.00000171  00000+0 -51002-3 0  9990
2 47281  87.8811  86.1065 0002371  94.3893 265.7506 13.12441443201856
ONEWEB-0136             
1 47282U 20100AA  25053.81225433 -.00000354  00000+0 -10206-2 0  9993
2 47282  87.8812  86.0697 0002327  87.0210 273.1185 13.12441660201780
ONEWEB-0137             
1 47283U 20100AB  25053.84632495  .00000523  00000+0  14171-2 0  9998
2 47283  87.8806  86.0760 0001734  91.2569 268.8758 13.12441375201690
ONEWEB-0138             
1 47284U 20100AC  25054.13018462  .00000102  00000+0  24823-3 0  9993
2 47284  87.8807  86.0312 0001998  91.7329 268.4029 13.12442569201813
ONEWEB-0139             
1 47285U 20100AD  25054.16924530  .00000088  00000+0  20851-3 0  9999
2 47285  87.8812  86.0074 0001890  93.7335 266.4010 13.12443173201893
ONEWEB-0140             
1 47286U 20100AE  25053.81874547 -.00000128  00000+0 -39087-3 0  9991
2 47286  87.8807  86.0698 0002005  92.3985 267.7373 13.12444382201816
ONEWEB-0141             
1 47287U 20100AF  25054.16896897 -.00000016  00000+0 -81091-4 0  9992
2 47287  87.8807  86.0153 0001723  93.6018 266.5307 13.12439744201843
ONEWEB-0142             
1 47288U 20100AG  25053.83254517  .00000284  00000+0  75296-3 0  9997
2 47288  87.8807  86.0632 0001813  85.7650 274.3686 13.12442874201799
ONEWEB-0143             
1 47289U 20100AH  25054.09125195  .00000036  00000+0  63387-4 0  9990
2 47289  87.8808  86.0349 0001888  93.9753 266.1591 13.12441887201802
ONEWEB-0144             
1 47290U 20100AJ  25054.13991539  .00000353  00000+0  94468-3 0  9995
2 47290  87.8809  86.0071 0001960  84.6922 275.4430 13.12443764201736
ONEWEB-0145             
1 47291U 20100AK  25053.80576976 -.00000342  00000+0 -98613-3 0  9999
2 47291  87.8809  86.0990 0001937  91.2238 268.9112 13.12443547201884
ONEWEB-0146             
1 47292U 20100AL  25054.10747414 -.00000412  00000+0 -11798-2 0  9997
2 47292  87.8810  86.0245 0001939 106.7888 253.3454 13.12441361201839
ONEWEB-0147             
1 47293U 20100AM  25054.14965424  .00000462  00000+0  12479-2 0  9995
2 47293  87.8806  86.0004 0002178  91.5116 268.6262 13.12441714201736
ONEWEB-0115             
1 48042U 21025A   25053.71362218 -.00000198  00000+0 -57812-3 0  9998
2 48042  87.8880  55.5333 0001849  90.6411 269.4929 13.13469250190652
ONEWEB-0152             
1 48043U 21025B   25053.72632204 -.00000234  00000+0 -67498-3 0  9997
2 48043  87.8883  55.5385 0001944  90.8075 269.3277 13.13469671190615
ONEWEB-0153             
1 48044U 21025C   25054.00882029  .00000046  00000+0  92102-4 0  9992
2 48044  87.8889  55.4766 0001829  86.4643 273.6695 13.13467860190652
ONEWEB-0154             
1 48045U 21025D   25053.70091550  .00000059  00000+0  12730-3 0  9992
2 48045  87.8883  55.5417 0001915  89.8011 270.3338 13.13471336190564
ONEWEB-0116             
1 48046U 21025E   25053.97072479  .00000136  00000+0  33743-3 0  9994
2 48046  87.8885  55.4644 0001921  93.6018 266.5330 13.13469433190749
ONEWEB-0150             
1 48047U 21025F   25053.94533243 -.00000228  00000+0 -65982-3 0  9997
2 48047  87.8881  55.4735 0001738  83.3988 276.7339 13.13468789190638
ONEWEB-0107             
1 48048U 21025G   25054.02309759 -.00000286  00000+0 -81796-3 0  9996
2 48048  87.8881  55.4558 0001913  75.9289 284.2053 13.13468357190625
ONEWEB-0101             
1 48049U 21025H   25053.75804934  .00000079  00000+0  18212-3 0  9992
2 48049  87.8886  55.5401 0001964  85.5543 274.5810 13.13470420190565
ONEWEB-0113             
1 48050U 21025J   25054.03993491  .00030325  00000+0  82321-1 0  9990
2 48050  87.8887  55.4632 0001741  80.8168 279.3159 13.13811231190688
ONEWEB-0112             
1 48051U 21025K   25053.72314566 -.00000295  00000+0 -84371-3 0  9990
2 48051  87.8879  55.5127 0001795  88.0487 272.0848 13.13468615190659
